{
    "CCSDS_OMM_VERS": "3.0",
    "COMMENT": "GENERATED VIA SPACE-TRACK.ORG API",
    "CREATION_DATE": "2025-11-23T21:08:43",
    "ORIGINATOR": "18 SPCS",
    "OBJECT_NAME": "BEIDOU 3M2",
    "OBJECT_ID": "2017-069B",
    "CENTER_NAME": "EARTH",
    "REF_FRAME": "TEME",
    "TIME_SYSTEM": "UTC",
    "MEAN_ELEMENT_THEORY": "SGP4",
    "EPOCH": "2025-11-22T21:08:00.398688",
    "MEAN_MOTION": "1.86230845",
    "ECCENTRICITY": "0.00058681",
    "INCLINATION": "56.5093",
    "RA_OF_ASC_NODE": "69.9265",
    "ARG_OF_PERICENTER": "334.9945",
    "MEAN_ANOMALY": "24.9764",
    "EPHEMERIS_TYPE": "0",
    "CLASSIFICATION_TYPE": "U",
    "NORAD_CAT_ID": "43002",
    "ELEMENT_SET_NO": "999",
    "REV_AT_EPOCH": "5475",
    "BSTAR": "0.00000000000000",
    "MEAN_MOTION_DOT": "-0.00000031",
    "MEAN_MOTION_DDOT": "0.0000000000000",
    "SEMIMAJOR_AXIS": "27906.204",
    "PERIOD": "773.234",
    "APOAPSIS": "21544.445",
    "PERIAPSIS": "21511.693",
    "OBJECT_TYPE": "PAYLOAD",
    "RCS_SIZE": "LARGE",
    "COUNTRY_CODE": "PRC",
    "LAUNCH_DATE": "2017-11-05",
    "SITE": "XSC",
    "DECAY_DATE": null,
    "FILE": "4896238",
    "GP_ID": "303333534",
    "TLE_LINE0": "0 BEIDOU 3M2",
    "TLE_LINE1": "1 43002U 17069B   25326.88056017 -.00000031  00000-0  00000-0 0  9990",
    "TLE_LINE2": "2 43002  56.5093  69.9265 0005868 334.9945  24.9764  1.86230845 54750"
}